NORAD_CAT_ID,OBJECT_NAME,OBJECT_TYPE,EPOCH,MEAN_MOTION,ECCENTRICITY,INCLINATION,RA_OF_ASC_NODE,ARG_OF_PERICENTER,MEAN_ANOMALY,BSTAR,MEAN_MOTION_DOT,MEAN_MOTION_DDOT,TLE_LINE0,TLE_LINE1,TLE_LINE2,SEMIMAJOR_AXIS,PERIOD,APOGEE,PERIGEE,DECAYED
56486.0,STARLINK-6201,PAYLOAD,2024-03-14 06:48:17,14.98332036,0.0003221,69.9997,153.3379,268.8181,91.2609,8.5312e-06,9e-08,0.0,0 STARLINK-6201,1 56486U 23064AQ  24074.28353793  .00000009  00000-0  85312-5 0  9994,2 56486  69.9997 153.3379 0003221 268.8181  91.2609 14.98332036 47088,6950.187,96.107,574.29,569.813,0.0
56486.0,STARLINK-6201,PAYLOAD,2024-03-14 11:36:41,14.98331899,0.0003218,69.9997,152.8329,268.6466,91.4325,6.8374e-06,-1.1e-07,0.0,0 STARLINK-6201,1 56486U 23064AQ  24074.48381771 -.00000011  00000-0  68374-5 0  9996,2 56486  69.9997 152.8329 0003218 268.6466  91.4325 14.98331899 47473,6950.187,96.107,574.289,569.815,0.0
56486.0,STARLINK-6201,PAYLOAD,2024-03-15 11:38:42,14.98330058,0.0003185,69.9997,150.3082,268.5532,91.5263,-2.2044e-05,-3.56e-06,0.0,0 STARLINK-6201,1 56486U 23064AQ  24075.48521888 -.00000356  00000-0 -22044-4 0  9998,2 56486  69.9997 150.3082 0003185 268.5532  91.5263 14.98330058 47623,6950.193,96.107,574.271,569.844,0.0
56486.0,STARLINK-6201,PAYLOAD,2024-03-16 11:40:43,14.98328969,0.0002985,70.0,147.7846,264.4762,95.6057,-1.746e-06,-1.14e-06,0.0,0 STARLINK-6201,1 56486U 23064AQ  24076.48661869 -.00000114  00000-0 -17460-5 0  9992,2 56486  70.0000 147.7846 0002985 264.4762  95.6057 14.98328969 47776,6950.196,96.107,574.136,569.986,0.0
56486.0,STARLINK-6201,PAYLOAD,2024-03-16 13:16:51,14.98329169,0.0002951,70.0001,147.6165,263.6445,96.4378,6.7539e-07,-8.5e-07,0.0,0 STARLINK-6201,1 56486U 23064AQ  24076.55337849 -.00000085  00000-0  67539-6 0  9997,2 56486  70.0001 147.6165 0002951 263.6445  96.4378 14.98329169 47422,6950.195,96.107,574.111,570.009,0.0
56486.0,STARLINK-6201,PAYLOAD,2024-03-16 14:52:59,14.98330067,0.000303,69.9999,147.4475,266.319,93.7622,9.6708e-06,2.2e-07,0.0,0 STARLINK-6201,1 56486U 23064AQ  24076.62013775  .00000022  00000-0  96708-5 0  9993,2 56486  69.9999 147.4475 0003030 266.3190  93.7622 14.98330067 47435,6950.193,96.107,574.164,569.952,0.0
56486.0,STARLINK-6201,PAYLOAD,2024-03-17 11:42:44,14.98329063,0.0002948,69.9999,145.2592,268.7066,91.3755,2.4207e-05,1.96e-06,0.0,0 STARLINK-6201,1 56486U 23064AQ  24077.48801834  .00000196  00000-0  24207-4 0  9995,2 56486  69.9999 145.2592 0002948 268.7066  91.3755 14.98329063 47925,6950.196,96.107,574.11,570.012,0.0
56486.0,STARLINK-6201,PAYLOAD,2024-03-17 13:18:52,14.98329531,0.0002933,70.0,145.0909,268.5855,91.4968,2.8751e-05,2.5e-06,0.0,0 STARLINK-6201,1 56486U 23064AQ  24077.55477792  .00000250  00000-0  28751-4 0  9994,2 56486  70.0000 145.0909 0002933 268.5855  91.4968 14.98329531 47577,6950.194,96.107,574.098,570.021,0.0
56486.0,STARLINK-6201,PAYLOAD,2024-03-17 14:55:00,14.9832963,0.0002942,69.9999,144.9226,269.0983,90.9839,2.9458e-05,2.59e-06,0.0,0 STARLINK-6201,1 56486U 23064AQ  24077.62153787  .00000259  00000-0  29458-4 0  9991,2 56486  69.9999 144.9226 0002942 269.0983  90.9839 14.98329630 47581,6950.194,96.107,574.104,570.014,0.0
56486.0,STARLINK-6201,PAYLOAD,2024-03-18 11:44:45,14.98331134,0.0002943,69.9997,142.7343,268.8774,91.2048,2.6622e-05,2.25e-06,0.0,0 STARLINK-6201,1 56486U 23064AQ  24078.48941620  .00000225  00000-0  26622-4 0  9990,2 56486  69.9997 142.7343 0002943 268.8774  91.2048 14.98331134 48074,6950.189,96.107,574.1,570.009,0.0
56486.0,STARLINK-6201,PAYLOAD,2024-03-18 14:57:01,14.98333112,0.0002902,69.9997,142.3976,267.4904,92.5923,4.9387e-05,4.96e-06,0.0,0 STARLINK-6201,1 56486U 23064AQ  24078.62293390  .00000496  00000-0  49387-4 0  9993,2 56486  69.9997 142.3976 0002902 267.4904  92.5923 14.98333112 47733,6950.183,96.107,574.065,570.031,0.0
56486.0,STARLINK-6201,PAYLOAD,2024-03-19 11:46:46,14.98332955,0.0002736,70.0001,140.2101,259.8347,100.2504,3.6237e-05,3.39e-06,0.0,0 STARLINK-6201,1 56486U 23064AQ  24079.49081264  .00000339  00000-0  36237-4 0  9990,2 56486  70.0001 140.2101 0002736 259.8347 100.2504 14.98332955 47860,6950.184,96.107,573.95,570.147,0.0
56486.0,STARLINK-6201,PAYLOAD,2024-03-19 13:22:54,14.98333727,0.0002715,70.0002,140.042,258.8923,101.193,4.7285e-05,4.71e-06,0.0,0 STARLINK-6201,1 56486U 23064AQ  24079.55757164  .00000471  00000-0  47285-4 0  9998,2 56486  70.0002 140.0420 0002715 258.8923 101.1930 14.98333727 48232,6950.181,96.107,573.933,570.159,0.0
56486.0,STARLINK-6201,PAYLOAD,2024-03-20 10:12:39,14.9832523,0.0002566,69.9997,137.8515,263.2687,96.818,-3.3657e-05,-4.94e-06,0.0,0 STARLINK-6201,1 56486U 23064AQ  24080.42545896 -.00000494  00000-0 -33657-4 0  9998,2 56486  69.9997 137.8515 0002566 263.2687  96.8180 14.98325230 48363,6950.208,96.107,573.856,570.289,0.0
56486.0,STARLINK-6201,PAYLOAD,2024-03-20 13:24:55,14.98326703,0.0002598,69.9996,137.5152,261.0501,99.0364,-2.8238e-05,-4.3e-06,0.0,0 STARLINK-6201,1 56486U 23064AQ  24080.55897790 -.00000430  00000-0 -28238-4 0  9994,2 56486  69.9996 137.5152 0002598 261.0501  99.0364 14.98326703 48020,6950.203,96.107,573.874,570.262,0.0
56486.0,STARLINK-6201,PAYLOAD,2024-03-21 13:26:56,14.98333456,0.0002969,69.9994,134.991,269.4775,90.6044,1.5614e-06,-7.4e-07,0.0,0 STARLINK-6201,1 56486U 23064AQ  24081.56037289 -.00000074  00000-0  15614-5 0  9993,2 56486  69.9994 134.9910 0002969 269.4775  90.6044 14.98333456 48539,6950.182,96.107,574.111,569.984,0.0
56486.0,STARLINK-6201,PAYLOAD,2024-03-22 13:28:56,14.98337212,0.0002818,69.9994,132.4672,268.1687,91.915,0.00013656,1.537e-05,0.0,0 STARLINK-6201,1 56486U 23064AQ  24082.56176419  .00001537  00000-0  13656-3 0  9999,2 56486  69.9994 132.4672 0002818 268.1687  91.9150 14.98337212 48321,6950.171,96.107,573.994,570.077,0.0
56486.0,STARLINK-6201,PAYLOAD,2024-03-23 05:30:18,14.98321029,0.0002463,70.0012,130.7846,262.4263,97.6616,-3.89e-05,-5.57e-06,0.0,0 STARLINK-6201,1 56486U 23064AQ  24083.22938093 -.00000557  00000-0 -38900-4 0  9990,2 56486  70.0012 130.7846 0002463 262.4263  97.6616 14.98321029 48781,6950.221,96.108,573.797,570.374,0.0
56486.0,STARLINK-6201,PAYLOAD,2024-03-23 19:55:29,14.98375133,0.0002179,70.0022,129.2688,272.1821,87.9089,-0.00079223,-9.543e-05,0.0,0 STARLINK-6201,1 56486U 23064AQ  24083.83020323 -.00009543  00000-0 -79223-3 0  9991,2 56486  70.0022 129.2688 0002179 272.1821  87.9089 14.98375133 48872,6950.053,96.104,573.433,570.404,0.0
56486.0,STARLINK-6201,PAYLOAD,2024-03-24 05:32:18,14.98335302,0.0002403,70.0,128.2577,268.1991,91.8893,3.2846e-06,-5.4e-07,0.0,0 STARLINK-6201,1 56486U 23064AQ  24084.23076872 -.00000054  00000-0  32846-5 0  9995,2 56486  70.0000 128.2577 0002403 268.1991  91.8893 14.98335302 48935,6950.176,96.107,573.712,570.371,0.0
56486.0,STARLINK-6201,PAYLOAD,2024-03-24 11:56:50,14.98335931,0.0002641,69.9996,127.5853,266.8719,93.2138,-2.1249e-05,-3.47e-06,0.0,0 STARLINK-6201,1 56486U 23064AQ  24084.49780768 -.00000347  00000-0 -21249-4 0  9999,2 56486  69.9996 127.5853 0002641 266.8719  93.2138 14.98335931 48613,6950.175,96.107,573.875,570.204,0.0
56486.0,STARLINK-6201,PAYLOAD,2024-03-24 19:57:31,14.98327816,0.0002639,69.9992,126.7435,274.0139,86.0719,-1.7339e-05,-3e-06,0.0,0 STARLINK-6201,1 56486U 23064AQ  24084.83161365 -.00000300  00000-0 -17339-4 0  9997,2 56486  69.9992 126.7435 0002639 274.0139  86.0719 14.98327816 49024,6950.2,96.107,573.899,570.23,0.0
56486.0,STARLINK-6201,PAYLOAD,2024-03-25 05:34:20,14.9831923,0.0002772,69.9998,125.7342,276.5148,83.5696,5.0078e-06,-3.3e-07,0.0,0 STARLINK-6201,1 56486U 23064AQ  24085.23218010 -.00000033  00000-0  50078-5 0  9992,2 56486  69.9998 125.7342 0002772 276.5148  83.5696 14.98319230 49084,6950.226,96.108,574.018,570.165,0.0
56486.0,STARLINK-6201,PAYLOAD,2024-03-25 19:59:33,14.98320792,0.0002921,69.9989,124.2174,271.2195,88.863,-0.00011919,-1.514e-05,0.0,0 STARLINK-6201,1 56486U 23064AQ  24085.83302426 -.00001514  00000-0 -11919-3 0  9998,2 56486  69.9989 124.2174 0002921 271.2195  88.8630 14.98320792 48812,6950.221,96.108,574.117,570.056,0.0
56486.0,STARLINK-6201,PAYLOAD,2024-03-26 05:36:22,14.98316968,0.0002927,69.999,123.2081,270.0494,90.033,-9.1978e-05,-1.19e-05,0.0,0 STARLINK-6201,1 56486U 23064AQ  24086.23358846 -.00001190  00000-0 -91978-4 0  9994,2 56486  69.9990 123.2081 0002927 270.0494  90.0330 14.98316968 49234,6950.233,96.108,574.133,570.064,0.0
56486.0,STARLINK-6201,PAYLOAD,2024-03-26 12:00:54,14.98320826,0.0002941,69.9987,122.5339,268.4684,91.6139,-9.0486e-05,-1.172e-05,0.0,0 STARLINK-6201,1 56486U 23064AQ  24086.50062771 -.00001172  00000-0 -90486-4 0  9996,2 56486  69.9987 122.5339 0002941 268.4684  91.6139 14.98320826 48912,6950.221,96.108,574.13,570.042,0.0
56486.0,STARLINK-6201,PAYLOAD,2024-03-26 20:01:34,14.9832596,0.0002995,69.9988,121.6923,268.714,91.3676,-6.2713e-05,-8.41e-06,0.0,0 STARLINK-6201,1 56486U 23064AQ  24086.83442524 -.00000841  00000-0 -62713-4 0  9994,2 56486  69.9988 121.6923 0002995 268.7140  91.3676 14.98325960 49324,6950.205,96.107,574.152,569.989,0.0
56486.0,STARLINK-6201,PAYLOAD,2024-03-27 12:02:54,14.98327457,0.0002866,69.9988,120.0089,268.2604,91.8227,9.2164e-05,1.007e-05,0.0,0 STARLINK-6201,1 56486U 23064AQ  24087.50202333  .00001007  00000-0  92164-4 0  9997,2 56486  69.9988 120.0089 0002866 268.2604  91.8227 14.98327457 49068,6950.201,96.107,574.058,570.074,0.0
56486.0,STARLINK-6201,PAYLOAD,2024-03-27 20:03:41,14.98258346,0.0002954,70.0,119.1674,265.2049,94.8773,-0.00057717,-6.96e-05,0.0,0 STARLINK-6201,1 56486U 23064AQ  24087.83589305 -.00006960  00000-0 -57717-3 0  9999,2 56486  70.0000 119.1674 0002954 265.2049  94.8773 14.98258346 49477,6950.414,96.112,574.333,570.226,0.0
56486.0,STARLINK-6201,PAYLOAD,2024-03-28 05:40:24,14.98324678,0.0003059,69.9983,118.1576,270.4448,89.6361,0.00018474,2.112e-05,0.0,0 STARLINK-6201,1 56486U 23064AQ  24088.23639852  .00002112  00000-0  18474-3 0  9997,2 56486  69.9983 118.1576 0003059 270.4448  89.6361 14.98324678 49536,6950.209,96.107,574.2,569.948,0.0
